[{"OBJECT_NAME":"LEMUR-2-ANDIS","OBJECT_ID":"2017-042P","EPOCH":"2026-03-09T13:25:33.116448","MEAN_MOTION":15.30557934,"ECCENTRICITY":0.0009101,"INCLINATION":97.3659,"RA_OF_ASC_NODE":249.795,"ARG_OF_PERICENTER":4.3248,"MEAN_ANOMALY":355.807,"EPHEMERIS_TYPE":0,"CLASSIFICATION_TYPE":"U","NORAD_CAT_ID":42838,"ELEMENT_SET_NO":999,"REV_AT_EPOCH":47319,"BSTAR":0.00079875,"MEAN_MOTION_DOT":0.00023598,"MEAN_MOTION_DDOT":0},{"OBJECT_NAME":"STARLINK-32889","OBJECT_ID":"2025-029P","EPOCH":"2026-03-09T21:18:21.855744","MEAN_MOTION":15.30206698,"ECCENTRICITY":4.707e-5,"INCLINATION":53.1584,"RA_OF_ASC_NODE":231.8424,"ARG_OF_PERICENTER":120.7496,"MEAN_ANOMALY":239.3551,"EPHEMERIS_TYPE":0,"CLASSIFICATION_TYPE":"U","NORAD_CAT_ID":62961,"ELEMENT_SET_NO":999,"REV_AT_EPOCH":6134,"BSTAR":0.0010761259,"MEAN_MOTION_DOT":0.00031655,"MEAN_MOTION_DDOT":0}]
